ONEWEB-0704             
1 61609U 24188R   25306.36403779  .00000682  00000+0  19174-2 0  9999
2 61609  87.8798  81.4347 0002519  83.3607 276.7807 13.10375768 53581
ONEWEB-0705             
1 61610U 24188S   25306.44537097  .00000664  00000+0  18647-2 0  9995
2 61610  87.8789  81.4456 0002050  60.5470 299.5861 13.10375051 45768
ONEWEB-0706             
1 61611U 24188T   25306.43043084  .00000163  00000+0  43120-3 0  9992
2 61611  87.8786  81.4727 0002034  80.8166 279.3192 13.10375689 53686
ONEWEB-0707             
1 61612U 24188U   25306.43707786  .00000479  00000+0  13359-2 0  9999
2 61612  87.8798  81.4433 0002073  84.1383 275.9981 13.10374817 53629
ONEWEB-0708             
1 61613U 24188V   25306.37897255 -.00000753  00000+0 -21932-2 0  9997
2 61613  87.8779  81.4952 0001418  80.7726 279.3562 13.10366215 53592
