[{"OBJECT_NAME":"ONEWEB-0704","OBJECT_ID":"2024-188R","EPOCH":"2025-11-02T08:44:12.865056","MEAN_MOTION":13.10375768,"ECCENTRICITY":0.0002519,"INCLINATION":87.8798,"RA_OF_ASC_NODE":81.4347,"ARG_OF_PERICENTER":83.3607,"MEAN_ANOMALY":276.7807,"EPHEMERIS_TYPE":0,"CLASSIFICATION_TYPE":"U","NORAD_CAT_ID":61609,"ELEMENT_SET_NO":999,"REV_AT_EPOCH":5358,"BSTAR":0.0019174,"MEAN_MOTION_DOT":6.82e-6,"MEAN_MOTION_DDOT":0},{"OBJECT_NAME":"ONEWEB-0705","OBJECT_ID":"2024-188S","EPOCH":"2025-11-02T10:41:20.051808","MEAN_MOTION":13.10375051,"ECCENTRICITY":0.000205,"INCLINATION":87.8789,"RA_OF_ASC_NODE":81.4456,"ARG_OF_PERICENTER":60.547,"MEAN_ANOMALY":299.5861,"EPHEMERIS_TYPE":0,"CLASSIFICATION_TYPE":"U","NORAD_CAT_ID":61610,"ELEMENT_SET_NO":999,"REV_AT_EPOCH":4576,"BSTAR":0.0018647,"MEAN_MOTION_DOT":6.64e-6,"MEAN_MOTION_DDOT":0},{"OBJECT_NAME":"ONEWEB-0706","OBJECT_ID":"2024-188T","EPOCH":"2025-11-02T10:19:49.224576","MEAN_MOTION":13.10375689,"ECCENTRICITY":0.0002034,"INCLINATION":87.8786,"RA_OF_ASC_NODE":81.4727,"ARG_OF_PERICENTER":80.8166,"MEAN_ANOMALY":279.3192,"EPHEMERIS_TYPE":0,"CLASSIFICATION_TYPE":"U","NORAD_CAT_ID":61611,"ELEMENT_SET_NO":999,"REV_AT_EPOCH":5368,"BSTAR":0.0004312,"MEAN_MOTION_DOT":1.63e-6,"MEAN_MOTION_DDOT":0},{"OBJECT_NAME":"ONEWEB-0707","OBJECT_ID":"2024-188U","EPOCH":"2025-11-02T10:29:23.527104","MEAN_MOTION":13.10374817,"ECCENTRICITY":0.0002073,"INCLINATION":87.8798,"RA_OF_ASC_NODE":81.4433,"ARG_OF_PERICENTER":84.1383,"MEAN_ANOMALY":275.9981,"EPHEMERIS_TYPE":0,"CLASSIFICATION_TYPE":"U","NORAD_CAT_ID":61612,"ELEMENT_SET_NO":999,"REV_AT_EPOCH":5362,"BSTAR":0.0013359,"MEAN_MOTION_DOT":4.79e-6,"MEAN_MOTION_DDOT":0},{"OBJECT_NAME":"ONEWEB-0708","OBJECT_ID":"2024-188V","EPOCH":"2025-11-02T09:05:43.228320","MEAN_MOTION":13.10366215,"ECCENTRICITY":0.0001418,"INCLINATION":87.8779,"RA_OF_ASC_NODE":81.4952,"ARG_OF_PERICENTER":80.7726,"MEAN_ANOMALY":279.3562,"EPHEMERIS_TYPE":0,"CLASSIFICATION_TYPE":"U","NORAD_CAT_ID":61613,"ELEMENT_SET_NO":999,"REV_AT_EPOCH":5359,"BSTAR":-0.0021932,"MEAN_MOTION_DOT":-7.53e-6,"MEAN_MOTION_DDOT":0}]
